[{"OBJECT_NAME":"GHGSAT-C5","OBJECT_ID":"2022-057N","EPOCH":"2026-03-09T21:50:12.501024","MEAN_MOTION":15.32921902,"ECCENTRICITY":0.00082696,"INCLINATION":97.6522,"RA_OF_ASC_NODE":212.4963,"ARG_OF_PERICENTER":109.8004,"MEAN_ANOMALY":250.413,"EPHEMERIS_TYPE":0,"CLASSIFICATION_TYPE":"U","NORAD_CAT_ID":52744,"ELEMENT_SET_NO":999,"REV_AT_EPOCH":21032,"BSTAR":0.00029214604,"MEAN_MOTION_DOT":9.218e-5,"MEAN_MOTION_DDOT":0},{"OBJECT_NAME":"STARLINK-33648","OBJECT_ID":"2025-063J","EPOCH":"2026-03-09T22:18:15.885792","MEAN_MOTION":15.30220328,"ECCENTRICITY":0.00019281,"INCLINATION":53.1611,"RA_OF_ASC_NODE":51.5313,"ARG_OF_PERICENTER":90.1264,"MEAN_ANOMALY":269.9957,"EPHEMERIS_TYPE":0,"CLASSIFICATION_TYPE":"U","NORAD_CAT_ID":63371,"ELEMENT_SET_NO":999,"REV_AT_EPOCH":5479,"BSTAR":0.00093544102,"MEAN_MOTION_DOT":0.00027466,"MEAN_MOTION_DDOT":0}]
